[{"OBJECT_NAME":"CYGFM04","OBJECT_ID":"2016-078B","EPOCH":"2026-03-09T16:26:53.872800","MEAN_MOTION":15.55625128,"ECCENTRICITY":0.00057915,"INCLINATION":34.9324,"RA_OF_ASC_NODE":169.3835,"ARG_OF_PERICENTER":320.2308,"MEAN_ANOMALY":39.7991,"EPHEMERIS_TYPE":0,"CLASSIFICATION_TYPE":"U","NORAD_CAT_ID":41885,"ELEMENT_SET_NO":999,"REV_AT_EPOCH":51346,"BSTAR":0.0004416761,"MEAN_MOTION_DOT":0.00031406,"MEAN_MOTION_DDOT":0},{"OBJECT_NAME":"DONGPO 07","OBJECT_ID":"2022-098A","EPOCH":"2026-03-09T22:39:41.535072","MEAN_MOTION":15.58082011,"ECCENTRICITY":0.00031318,"INCLINATION":97.5414,"RA_OF_ASC_NODE":192.813,"ARG_OF_PERICENTER":358.3242,"MEAN_ANOMALY":1.8003,"EPHEMERIS_TYPE":0,"CLASSIFICATION_TYPE":"U","NORAD_CAT_ID":53444,"ELEMENT_SET_NO":999,"REV_AT_EPOCH":19923,"BSTAR":0.00092859707,"MEAN_MOTION_DOT":0.00070169,"MEAN_MOTION_DDOT":0}]
